{
  "type": "FeatureCollection",
  "features": [
    {
      "type": "Feature",
      "properties": {
        "norad_id": 26766,
        "name": "INTELSAT 10 (IS-10)",
        "group": "intelsat",
        "lat": -1.6015818495391119,
        "lon": -108.46088638890238,
        "alt_km": 36099.37709447503,
        "timestamp": "2025-12-21T03:56:50.521749+00:00",
        "meta_object_name": "INTELSAT 10 (IS-10)",
        "meta_object_id": "2001-019A",
        "meta_epoch": "2025-12-20T17:29:18.796128",
        "meta_mean_motion": 0.9907436,
        "meta_eccentricity": 0.0007747,
        "meta_inclination": 8.6473,
        "meta_ra_of_asc_node": 61.0766,
        "meta_arg_of_pericenter": 228.8053,
        "meta_mean_anomaly": 166.3968,
        "meta_ephemeris_type": 0,
        "meta_classification_type": "U",
        "meta_norad_cat_id": 26766,
        "meta_element_set_no": 999,
        "meta_rev_at_epoch": 4381,
        "meta_bstar": 0,
        "meta_mean_motion_dot": -1.02e-06,
        "meta_mean_motion_ddot": 0,
        "tle_line1": "1 26766U 01019A   25354.72868977 -.00000102  00000+0  00000+0 0  9993",
        "tle_line2": "2 26766   8.6473  61.0766 0007747 228.8053 166.3968  0.99074360 43819"
      },
      "geometry": {
        "type": "Point",
        "coordinates": [
          -108.46088638890238,
          -1.6015818495391119
        ]
      }
    },
    {
      "type": "Feature",
      "properties": {
        "norad_id": 26900,
        "name": "INTELSAT 902 (IS-902)",
        "group": "intelsat",
        "lat": 2.42390298152388,
        "lon": 98.9271732551133,
        "alt_km": 35805.04990993399,
        "timestamp": "2025-12-21T03:56:50.521772+00:00",
        "meta_object_name": "INTELSAT 902 (IS-902)",
        "meta_object_id": "2001-039A",
        "meta_epoch": "2025-12-15T13:09:02.081664",
        "meta_mean_motion": 1.0027087,
        "meta_eccentricity": 0.00045028,
        "meta_inclination": 5.6536,
        "meta_ra_of_asc_node": 74.0372,
        "meta_arg_of_pericenter": 189.6359,
        "meta_mean_anomaly": 327.9329,
        "meta_ephemeris_type": 0,
        "meta_classification_type": "U",
        "meta_norad_cat_id": 26900,
        "meta_element_set_no": 999,
        "meta_rev_at_epoch": 8885,
        "meta_bstar": 0,
        "meta_mean_motion_dot": -2.65e-06,
        "meta_mean_motion_ddot": 0,
        "tle_line1": "1 26900U 01039A   25349.54794076 -.00000265  00000+0  00000+0 0  9997",
        "tle_line2": "2 26900   5.6536  74.0372 0004502 189.6359 327.9329  1.00270870 88858"
      },
      "geometry": {
        "type": "Point",
        "coordinates": [
          98.9271732551133,
          2.42390298152388
        ]
      }
    },
    {
      "type": "Feature",
      "properties": {
        "norad_id": 27380,
        "name": "INTELSAT 904 (IS-904)",
        "group": "intelsat",
        "lat": 4.705536727846664,
        "lon": 117.51371701025678,
        "alt_km": 35792.83756788353,
        "timestamp": "2025-12-21T03:56:50.521785+00:00",
        "meta_object_name": "INTELSAT 904 (IS-904)",
        "meta_object_id": "2002-007A",
        "meta_epoch": "2025-12-20T14:47:29.636736",
        "meta_mean_motion": 1.00270901,
        "meta_eccentricity": 0.0001808,
        "meta_inclination": 6.473,
        "meta_ra_of_asc_node": 71.342,
        "meta_arg_of_pericenter": 248.5545,
        "meta_mean_anomaly": 319.9209,
        "meta_ephemeris_type": 0,
        "meta_classification_type": "U",
        "meta_norad_cat_id": 27380,
        "meta_element_set_no": 999,
        "meta_rev_at_epoch": 4997,
        "meta_bstar": 0,
        "meta_mean_motion_dot": -2.07e-06,
        "meta_mean_motion_ddot": 0,
        "tle_line1": "1 27380U 02007A   25354.61631524 -.00000207  00000+0  00000+0 0  9994",
        "tle_line2": "2 27380   6.4730  71.3420 0001808 248.5545 319.9209  1.00270901 49971"
      },
      "geometry": {
        "type": "Point",
        "coordinates": [
          117.51371701025678,
          4.705536727846664
        ]
      }
    },
    {
      "type": "Feature",
      "properties": {
        "norad_id": 27426,
        "name": "DIRECTV 5 (TEMPO 1)",
        "group": "intelsat",
        "lat": -2.7348144794264715,
        "lon": 39.18968067787748,
        "alt_km": 35793.745624160576,
        "timestamp": "2025-12-21T03:56:50.521796+00:00",
        "meta_object_name": "DIRECTV 5 (TEMPO 1)",
        "meta_object_id": "2002-023A",
        "meta_epoch": "2025-12-20T16:07:51.941280",
        "meta_mean_motion": 1.00272208,
        "meta_eccentricity": 0.0003156,
        "meta_inclination": 4.421,
        "meta_ra_of_asc_node": 77.5595,
        "meta_arg_of_pericenter": 197.8635,
        "meta_mean_anomaly": 305.9271,
        "meta_ephemeris_type": 0,
        "meta_classification_type": "U",
        "meta_norad_cat_id": 27426,
        "meta_element_set_no": 999,
        "meta_rev_at_epoch": 8633,
        "meta_bstar": 0,
        "meta_mean_motion_dot": -3.7e-07,
        "meta_mean_motion_ddot": 0,
        "tle_line1": "1 27426U 02023A   25354.67212895 -.00000037  00000+0  00000+0 0  9996",
        "tle_line2": "2 27426   4.4210  77.5595 0003156 197.8635 305.9271  1.00272208 86335"
      },
      "geometry": {
        "type": "Point",
        "coordinates": [
          39.18968067787748,
          -2.7348144794264715
        ]
      }
    },
    {
      "type": "Feature",
      "properties": {
        "norad_id": 27438,
        "name": "INTELSAT 905 (IS-905)",
        "group": "intelsat",
        "lat": -5.455326857191701,
        "lon": 12.171501306534486,
        "alt_km": 35788.060172150406,
        "timestamp": "2025-12-21T03:56:50.521807+00:00",
        "meta_object_name": "INTELSAT 905 (IS-905)",
        "meta_object_id": "2002-027A",
        "meta_epoch": "2025-12-20T10:52:51.499776",
        "meta_mean_motion": 1.00272487,
        "meta_eccentricity": 0.00026639,
        "meta_inclination": 6.3037,
        "meta_ra_of_asc_node": 71.9674,
        "meta_arg_of_pericenter": 202.299,
        "meta_mean_anomaly": 201.0262,
        "meta_ephemeris_type": 0,
        "meta_classification_type": "U",
        "meta_norad_cat_id": 27438,
        "meta_element_set_no": 999,
        "meta_rev_at_epoch": 4957,
        "meta_bstar": 0,
        "meta_mean_motion_dot": 1.12e-06,
        "meta_mean_motion_ddot": 0,
        "tle_line1": "1 27438U 02027A   25354.45337384  .00000112  00000+0  00000+0 0  9993",
        "tle_line2": "2 27438   6.3037  71.9674 0002663 202.2990 201.0262  1.00272487 49579"
      },
      "geometry": {
        "type": "Point",
        "coordinates": [
          12.171501306534486,
          -5.455326857191701
        ]
      }
    },
    {
      "type": "Feature",
      "properties": {
        "norad_id": 27445,
        "name": "GALAXY 3C (G-3C)",
        "group": "intelsat",
        "lat": -1.4239043470926467,
        "lon": 54.35866877154589,
        "alt_km": 35787.44914397217,
        "timestamp": "2025-12-21T03:56:50.521819+00:00",
        "meta_object_name": "GALAXY 3C (G-3C)",
        "meta_object_id": "2002-030A",
        "meta_epoch": "2025-12-20T14:29:31.357824",
        "meta_mean_motion": 1.00271785,
        "meta_eccentricity": 0.0001136,
        "meta_inclination": 3.2823,
        "meta_ra_of_asc_node": 80.4246,
        "meta_arg_of_pericenter": 78.1134,
        "meta_mean_anomaly": 53.4191,
        "meta_ephemeris_type": 0,
        "meta_classification_type": "U",
        "meta_norad_cat_id": 27445,
        "meta_element_set_no": 999,
        "meta_rev_at_epoch": 4470,
        "meta_bstar": 0,
        "meta_mean_motion_dot": -1.32e-06,
        "meta_mean_motion_ddot": 0,
        "tle_line1": "1 27445U 02030A   25354.60383516 -.00000132  00000+0  00000+0 0  9993",
        "tle_line2": "2 27445   3.2823  80.4246 0001136  78.1134  53.4191  1.00271785 44700"
      },
      "geometry": {
        "type": "Point",
        "coordinates": [
          54.35866877154589,
          -1.4239043470926467
        ]
      }
    },
    {
      "type": "Feature",
      "properties": {
        "norad_id": 27513,
        "name": "INTELSAT 906 (IS-906)",
        "group": "intelsat",
        "lat": 3.5584176310723628,
        "lon": -146.60781992702934,
        "alt_km": 35772.276428229794,
        "timestamp": "2025-12-21T03:56:50.521830+00:00",
        "meta_object_name": "INTELSAT 906 (IS-906)",
        "meta_object_id": "2002-041A",
        "meta_epoch": "2025-12-20T20:07:29.951040",
        "meta_mean_motion": 1.00272914,
        "meta_eccentricity": 0.0006313,
        "meta_inclination": 5.3501,
        "meta_ra_of_asc_node": 75.1356,
        "meta_arg_of_pericenter": 199.098,
        "meta_mean_anomaly": 181.4397,
        "meta_ephemeris_type": 0,
        "meta_classification_type": "U",
        "meta_norad_cat_id": 27513,
        "meta_element_set_no": 999,
        "meta_rev_at_epoch": 8524,
        "meta_bstar": 0,
        "meta_mean_motion_dot": 3.2e-07,
        "meta_mean_motion_ddot": 0,
        "tle_line1": "1 27513U 02041A   25354.83854110  .00000032  00000+0  00000+0 0  9997",
        "tle_line2": "2 27513   5.3501  75.1356 0006313 199.0980 181.4397  1.00272914 85248"
      },
      "geometry": {
        "type": "Point",
        "coordinates": [
          -146.60781992702934,
          3.5584176310723628
        ]
      }
    }
  ]
}